NOAA 15                 
1 25338U 98030A   22288.53063810  .00000167  00000+0  87814-4 0  9994
2 25338  98.6353 316.4482 0009483 311.4813  48.5553 14.26182899270380
NOAA 18                 
1 28654U 05018A   22288.46288258  .00000229  00000+0  14723-3 0  9996
2 28654  98.9383 358.7438 0014014 356.4559   3.6511 14.12790656897014
NOAA 19                 
1 33591U 09005A   22288.47782022  .00000182  00000+0  12346-3 0  9998
2 33591  99.1368 325.0765 0013503 207.4871 152.5587 14.12622794705393
METOP-B                 
1 38771U 12049A   22288.50793036  .00000132  00000+0  80519-4 0  9999
2 38771  98.7159 346.5187 0001595  75.4358  37.3228 14.21482821522785
SARAL                   
1 39086U 13009A   22288.14703258  .00000110  00000+0  57031-4 0  9992
2 39086  98.5485 112.0280 0000248  31.3954 328.7245 14.32036394503611
METOP-C                 
1 43689U 18087A   22288.45205647  .00000128  00000+0  78586-4 0  9997
2 43689  98.7205 346.4756 0004040  62.0240 298.1345 14.21476596204351
ANGELS                  
1 44876U 19092D   22287.49967031  .00004599  00000+0  22586-3 0  9992
2 44876  97.4765 109.4629 0010744 308.8311  51.1963 15.18522850156307
GAZELLE                 
1 54023U 22127A   22287.89290127 -.00000043  00000+0  00000+0 0  9993
2 54023  98.3144 287.0780 0012227 277.6923  82.2852 14.41642030  1033
